NUSAT-1 (FRESCO)        
1 41557U 16033B   21346.62388009  .00002286  00000+0  79606-4 0  9996
2 41557  97.3929  79.6858 0011431 329.1582 145.2563 15.30661292308772
BEESAT-4                
1 41619U 16040W   21346.54733694  .00002475  00000+0  96537-4 0  9990
2 41619  97.2472  37.5387 0011830  65.8388 294.4086 15.26794158292170
CAS-2T & KS-1Q          
1 41847U 16066G   21346.57388582  .00000098  00000+0  24341-4 0  9999
2 41847  98.5792  46.2326 0365728  48.6643 314.5408 14.38299092267480
NAYIF-1 (EO-88)         
1 42017U 17008BX  21346.13453880  .00002334  00000+0  83869-4 0  9997
2 42017  97.2964  50.4967 0005588 180.8759 179.2473 15.29625815268405
ZHUHAI-1 02 (CAS-4B)    
1 42759U 17034B   21346.33099741  .00000634  00000+0  50931-4 0  9998
2 42759  43.0180 282.9248 0007730 205.4393 295.2852 15.10606764248040
ZHUHAI-1 01 (CAS-4A)    
1 42761U 17034D   21346.31073604  .00000722  00000+0  56054-4 0  9999
2 42761  43.0181 281.9629 0008600 206.5567 289.0208 15.10694462248046
MAX VALIER SAT          
1 42778U 17036P   21346.11233191  .00001271  00000+0  54578-4 0  9995
2 42778  97.2332  28.7515 0009895 268.9061  91.1043 15.24416931248342
RADFXSAT (FOX-1B)       
1 43017U 17073E   21346.51345913  .00000792  00000+0  65011-4 0  9994
2 43017  97.6924 243.3143 0254826  79.2009 283.7774 14.80002239219456
FOX-1D (AO-92)          
1 43137U 18004AC  21346.46718769  .00001883  00000+0  75554-4 0  9994
2 43137  97.3912  58.6093 0007188 310.2175  49.8434 15.26217198217807
DIWATA-2B               
1 43678U 18084H   21346.46955637  .00000617  00000+0  66869-4 0  9992
2 43678  97.9470 112.9281 0009846 174.7259 185.4058 14.91853099169974
ES'HAIL 2               
1 43700U 18090A   21346.49413538  .00000150  00000+0  00000+0 0  9999
2 43700   0.0244  80.2826 0002211 201.9377   2.8850  1.00273794 11151
FOX-1CLIFF (AO-95)      
1 43770U 18099N   21346.43475029  .00000030  00000+0  78137-5 0  9991
2 43770  97.6469  52.5261 0014475 176.9720 183.1592 14.95585802165051
ITASAT 1                
1 43786U 18099AE  21346.45461133  .00000361  00000+0  37383-4 0  9995
2 43786  97.6487  53.3467 0015420 170.2948 189.8575 14.95841900165097
JY1SAT (JO-97)          
1 43803U 18099AX  21346.45321361  .00000451  00000+0  45049-4 0  9991
2 43803  97.6448  53.0829 0015358 170.0582 190.0946 14.96144220165105
UWE-4                   
1 43880U 18111E   21345.98247397 -.00000098  00000+0 -34596-5 0  9999
2 43880  97.6784 250.5868 0010813 225.8964 134.1369 14.97172001161646
NEXUS (FO-99)           
1 43937U 19003F   21346.58711057  .00002230  00000+0  86428-4 0  9997
2 43937  97.1561  22.5313 0024258  99.6035 260.7947 15.26883665161436
PSAT2 (NO-104)          
1 44354U 19036R   21345.81461339  .00015039  00000+0  17897-3 0  9991
2 44354  28.5269  18.6185 0296489  48.8133 313.7639 15.21258870135930
BRICSAT2 (NO-103)       
1 44355U 19036S   21345.93293115  .00035787 -60126-5  27722-3 0  9992
2 44355  28.5246 295.7420 0199068 183.7758 176.1340 15.47717504136767
JAISAT-1                
1 44419U 19038F   21346.47928374  .00001643  00000+0  92282-4 0  9993
2 44419  97.6131 310.8420 0022260  60.2742 300.0701 15.14562534134737
DUCHIFAT-3              
1 44854U 19089C   21346.43491413  .00000711  00000+0  62624-4 0  9999
2 44854  36.9626 127.8464 0006626 144.4060 215.7139 14.99848134109830
CAS-6 (TO-108)          
1 44881U 19093C   21346.50557423  .00000127  00000+0  22915-4 0  9996
2 44881  97.9119  63.2713 0016481  75.7532 284.5507 14.81521146107095
RS-44 & BREEZE-KM R/B   
1 44909U 19096E   21346.49227081  .00000023  00000+0  43771-4 0  9990
2 44909  82.5212 354.5120 0218090  37.1202 324.4757 12.79711401 91592
ORBITAL FACTORY 2 (OF-2)
1 45113U 19071C   21346.46812942  .00003897  00000+0  11326-3 0  9996
2 45113  51.6411 253.2251 0010711 211.5195 148.5148 15.37889870104549
HUSKYSAT-1 (HO-107)     
1 45119U 19071J   21345.96468598  .00003408  00000+0  10088-3 0  9992
2 45119  51.6406 255.1018 0010316 205.9410 154.1058 15.37736253104469
BY70-2                  
1 45857U 20042B   21346.50824414  .00001591  00000+0  22923-3 0  9997
2 45857  97.9730  60.3610 0010337   7.6865 352.4480 14.77673973 77833
SALSAT                  
1 46495U 20068K   21346.54948920  .00000248  00000+0  22628-4 0  9998
2 46495  97.7102 283.1472 0016585 183.1063 177.0061 15.03709274 66091
BY70-3                  
1 46839U 20079N   21346.48166111  .00003852  00000+0  11385-3 0  9990
2 46839  97.2240  56.8224 0005310 292.8978 195.3015 15.35520147 61506
RADFXSAT-2 (AO-109)     
1 47311U 21002C   21346.58196722  .00001006  00000+0  54331-4 0  9993
2 47311  60.6861 343.9937 0034122 137.9950 222.3763 15.22538658 49989
UVSQ-SAT                
1 47438U 21006AB  21346.43910947  .00001172  00000+0  68556-4 0  9992
2 47438  97.4659  44.3107 0012097 196.5235 163.5603 15.13725198 48971
DIY-1 (ARDUIQUBE)       
1 47963U 21022AH  21346.54782102  .00003222  00000+0  20933-3 0  9999
2 47963  97.5452 245.7043 0020632  57.1446 303.1765 15.08561999 38737
